ORBCOMM FM114 [+]       
1 41179U 15081A   24020.80540091  .00001943  00000+0  47252-3 0  9991
2 41179  47.0011 187.8469 0001777 172.1838 187.9074 14.56229347429590
ORBCOMM FM119 [-]       
1 41180U 15081B   24020.56812638  .00001504  00000+0  37450-3 0  9997
2 41180  47.0013  98.1550 0002191 237.6685 122.3988 14.56220135430817
ORBCOMM FM105 [-]       
1 41181U 15081C   24020.92751789  .00000655  00000+0  23474-3 0  9994
2 41181  47.0024  53.3368 0002050 209.6510 150.4253 14.44193302426533
ORBCOMM FM110 [+]       
1 41182U 15081D   24020.57653058  .00001817  00000+0  44451-3 0  9995
2 41182  47.0001 188.3405 0001808 308.3219  51.7503 14.56220989429611
ORBCOMM FM118 [+]       
1 41183U 15081E   24020.89683971  .00001504  00000+0  37432-3 0  9992
2 41183  47.0023 187.1156 0001929 311.9386  48.1334 14.56220064429587
ORBCOMM FM112 [+]       
1 41184U 15081F   24020.34040151  .00001986  00000+0  48246-3 0  9999
2 41184  46.9985  98.4694 0001957 226.6811 133.3911 14.56213359430725
ORBCOMM FM113 [+]       
1 41185U 15081G   24020.31714804  .00001898  00000+0  46263-3 0  9999
2 41185  47.0004  98.8229 0001835 244.0247 116.0448 14.56208625430701
